{"type": "FeatureCollection", "features": [ {"type": "Feature", "properties": {"norad_id": 66495, "name": "STARLINK-35832", "group": "last-30-days", "lat": -15.161931679456238, "lon": 120.61048173288587, "alt_km": 416.30286015269303, "timestamp": "2025-12-10T14:53:35.946101+00:00", "meta": {"OBJECT_NAME": "STARLINK-35832", "OBJECT_ID": "2025-263L", "EPOCH": "2025-12-10T06:00:02.000160", "MEAN_MOTION": 15.50610704, "ECCENTRICITY": 0.00017378, "INCLINATION": 43.0008, "RA_OF_ASC_NODE": 139.6836, "ARG_OF_PERICENTER": 263.2318, "MEAN_ANOMALY": 163.4601, "EPHEMERIS_TYPE": 0, "CLASSIFICATION_TYPE": "U", "NORAD_CAT_ID": 66495, "ELEMENT_SET_NO": 999, "REV_AT_EPOCH": 523, "BSTAR": -0.0017140598, "MEAN_MOTION_DOT": -0.00099742, "MEAN_MOTION_DDOT": 0}, "tle": {"line1": "1 66495U 25263L   25344.25002315 -.00099742  00000+0 -17141-2 0  9992", "line2": "2 66495  43.0008 139.6836 0001737 263.2318 163.4601 15.50610704  5236"}}, "geometry": {"type": "Point", "coordinates": [120.61048173288587, -15.161931679456238]}}, {"type": "Feature", "properties": {"norad_id": 66496, "name": "STARLINK-35909", "group": "last-30-days", "lat": -13.906292543587737, "lon": 122.10261975387841, "alt_km": 416.2109282239144, "timestamp": "2025-12-10T14:53:35.946110+00:00", "meta": {"OBJECT_NAME": "STARLINK-35909", "OBJECT_ID": "2025-263M", "EPOCH": "2025-12-10T06:00:02.000160", "MEAN_MOTION": 15.50618281, "ECCENTRICITY": 0.00017615, "INCLINATION": 43.0008, "RA_OF_ASC_NODE": 139.6785, "ARG_OF_PERICENTER": 263.997, "MEAN_ANOMALY": 164.611, "EPHEMERIS_TYPE": 0, "CLASSIFICATION_TYPE": "U", "NORAD_CAT_ID": 66496, "ELEMENT_SET_NO": 999, "REV_AT_EPOCH": 523, "BSTAR": -0.0019954781, "MEAN_MOTION_DOT": -0.00115857, "MEAN_MOTION_DDOT": 0}, "tle": {"line1": "1 66496U 25263M   25344.25002315 -.00115857  00000+0 -19955-2 0  9994", "line2": "2 66496  43.0008 139.6785 0001761 263.9970 164.6110 15.50618281  5234"}}, "geometry": {"type": "Point", "coordinates": [122.10261975387841, -13.906292543587737]}}, {"type": "Feature", "properties": {"norad_id": 66497, "name": "STARLINK-35899", "group": "last-30-days", "lat": -12.642842597887194, "lon": 123.57720733910293, "alt_km": 416.1316853780445, "timestamp": "2025-12-10T14:53:35.946119+00:00", "meta": {"OBJECT_NAME": "STARLINK-35899", "OBJECT_ID": "2025-263N", "EPOCH": "2025-12-10T06:00:02.000160", "MEAN_MOTION": 15.50599702, "ECCENTRICITY": 0.00018314, "INCLINATION": 43.0007, "RA_OF_ASC_NODE": 139.6735, "ARG_OF_PERICENTER": 262.9221, "MEAN_ANOMALY": 167.6141, "EPHEMERIS_TYPE": 0, "CLASSIFICATION_TYPE": "U", "NORAD_CAT_ID": 66497, "ELEMENT_SET_NO": 999, "REV_AT_EPOCH": 523, "BSTAR": -0.0015789603, "MEAN_MOTION_DOT": -0.00091963, "MEAN_MOTION_DDOT": 0}, "tle": {"line1": "1 66497U 25263N   25344.25002315 -.00091963  00000+0 -15790-2 0  9999", "line2": "2 66497  43.0007 139.6735 0001831 262.9221 167.6141 15.50599702  5238"}}, "geometry": {"type": "Point", "coordinates": [123.57720733910293, -12.642842597887194]}}, {"type": "Feature", "properties": {"norad_id": 66498, "name": "STARLINK-35907", "group": "last-30-days", "lat": -21.401807788421415, "lon": 112.66804117481144, "alt_km": 434.836723930056, "timestamp": "2025-12-10T14:53:35.946129+00:00", "meta": {"OBJECT_NAME": "STARLINK-35907", "OBJECT_ID": "2025-263P", "EPOCH": "2025-12-10T06:00:02.000160", "MEAN_MOTION": 15.46005861, "ECCENTRICITY": 0.00015527, "INCLINATION": 43.0006, "RA_OF_ASC_NODE": 139.6898, "ARG_OF_PERICENTER": 269.0597, "MEAN_ANOMALY": 155.0481, "EPHEMERIS_TYPE": 0, "CLASSIFICATION_TYPE": "U", "NORAD_CAT_ID": 66498, "ELEMENT_SET_NO": 999, "REV_AT_EPOCH": 523, "BSTAR": -0.045893258, "MEAN_MOTION_DOT": -0.02041174, "MEAN_MOTION_DDOT": 0}, "tle": {"line1": "1 66498U 25263P   25344.25002315 -.02041174  00000+0 -45893-1 0  9997", "line2": "2 66498  43.0006 139.6898 0001552 269.0597 155.0481 15.46005861  5233"}}, "geometry": {"type": "Point", "coordinates": [112.66804117481144, -21.401807788421415]}}, {"type": "Feature", "properties": {"norad_id": 66499, "name": "STARLINK-35816", "group": "last-30-days", "lat": -9.875512424781128, "lon": 126.72756461664173, "alt_km": 421.64874309280185, "timestamp": "2025-12-10T14:53:35.946139+00:00", "meta": {"OBJECT_NAME": "STARLINK-35816", "OBJECT_ID": "2025-263Q", "EPOCH": "2025-12-10T06:00:02.000160", "MEAN_MOTION": 15.50268812, "ECCENTRICITY": 0.00015373, "INCLINATION": 43.0007, "RA_OF_ASC_NODE": 139.6585, "ARG_OF_PERICENTER": 270.2904, "MEAN_ANOMALY": 165.9362, "EPHEMERIS_TYPE": 0, "CLASSIFICATION_TYPE": "U", "NORAD_CAT_ID": 66499, "ELEMENT_SET_NO": 999, "REV_AT_EPOCH": 523, "BSTAR": -0.040405004, "MEAN_MOTION_DOT": -0.02083714, "MEAN_MOTION_DDOT": 0}, "tle": {"line1": "1 66499U 25263Q   25344.25002315 -.02083714  00000+0 -40405-1 0  9998", "line2": "2 66499  43.0007 139.6585 0001537 270.2904 165.9362 15.50268812  5237"}}, "geometry": {"type": "Point", "coordinates": [126.72756461664173, -9.875512424781128]}}, {"type": "Feature", "properties": {"norad_id": 66500, "name": "STARLINK-35894", "group": "last-30-days", "lat": -38.940393730572595, "lon": 77.49622702038637, "alt_km": 429.04980486184195, "timestamp": "2025-12-10T14:53:35.946149+00:00", "meta": {"OBJECT_NAME": "STARLINK-35894", "OBJECT_ID": "2025-263R", "EPOCH": "2025-12-10T06:00:02.000160", "MEAN_MOTION": 15.47986277, "ECCENTRICITY": 0.0001586, "INCLINATION": 43.0005, "RA_OF_ASC_NODE": 139.7816, "ARG_OF_PERICENTER": 273.7537, "MEAN_ANOMALY": 112.7061, "EPHEMERIS_TYPE": 0, "CLASSIFICATION_TYPE": "U", "NORAD_CAT_ID": 66500, "ELEMENT_SET_NO": 999, "REV_AT_EPOCH": 523, "BSTAR": -0.037998152, "MEAN_MOTION_DOT": -0.01833875, "MEAN_MOTION_DDOT": 0}, "tle": {"line1": "1 66500U 25263R   25344.25002315 -.01833875  00000+0 -37998-1 0  9994", "line2": "2 66500  43.0005 139.7816 0001586 273.7537 112.7061 15.47986277  5234"}}, "geometry": {"type": "Point", "coordinates": [77.49622702038637, -38.940393730572595]}}, {"type": "Feature", "properties": {"norad_id": 66501, "name": "STARLINK-35897", "group": "last-30-days", "lat": -7.51277597696723, "lon": 129.35039132479264, "alt_km": 415.47124266178616, "timestamp": "2025-12-10T14:53:35.946158+00:00", "meta": {"OBJECT_NAME": "STARLINK-35897", "OBJECT_ID": "2025-263S", "EPOCH": "2025-12-10T06:00:02.000160", "MEAN_MOTION": 15.50539028, "ECCENTRICITY": 0.0001827, "INCLINATION": 43.0005, "RA_OF_ASC_NODE": 139.6541, "ARG_OF_PERICENTER": 267.0263, "MEAN_ANOMALY": 171.1834, "EPHEMERIS_TYPE": 0, "CLASSIFICATION_TYPE": "U", "NORAD_CAT_ID": 66501, "ELEMENT_SET_NO": 999, "REV_AT_EPOCH": 523, "BSTAR": 0.0011539177, "MEAN_MOTION_DOT": 0.00067846, "MEAN_MOTION_DDOT": 0}, "tle": {"line1": "1 66501U 25263S   25344.25002315  .00067846  00000+0  11539-2 0  9993", "line2": "2 66501  43.0005 139.6541 0001827 267.0263 171.1834 15.50539028  5238"}}, "geometry": {"type": "Point", "coordinates": [129.35039132479264, -7.51277597696723]}}, {"type": "Feature", "properties": {"norad_id": 66502, "name": "STARLINK-35922", "group": "last-30-days", "lat": -3.619200320047835, "lon": 133.58004200627127, "alt_km": 415.329884457401, "timestamp": "2025-12-10T14:53:35.946168+00:00", "meta": {"OBJECT_NAME": "STARLINK-35922", "OBJECT_ID": "2025-263T", "EPOCH": "2025-12-10T06:00:02.000160", "MEAN_MOTION": 15.50609504, "ECCENTRICITY": 0.00017395, "INCLINATION": 43.0007, "RA_OF_ASC_NODE": 139.6398, "ARG_OF_PERICENTER": 266.239, "MEAN_ANOMALY": 177.707, "EPHEMERIS_TYPE": 0, "CLASSIFICATION_TYPE": "U", "NORAD_CAT_ID": 66502, "ELEMENT_SET_NO": 999, "REV_AT_EPOCH": 523, "BSTAR": -0.0017906634, "MEAN_MOTION_DOT": -0.00104122, "MEAN_MOTION_DDOT": 0}, "tle": {"line1": "1 66502U 25263T   25344.25002315 -.00104122  00000+0 -17907-2 0  9990", "line2": "2 66502  43.0007 139.6398 0001739 266.2390 177.7070 15.50609504  5236"}}, "geometry": {"type": "Point", "coordinates": [133.58004200627127, -3.619200320047835]}}, {"type": "Feature", "properties": {"norad_id": 66503, "name": "STARLINK-35917", "group": "last-30-days", "lat": -1.0066745282932275, "lon": 136.3819894262149, "alt_km": 415.10140938343284, "timestamp": "2025-12-10T14:53:35.946177+00:00", "meta": {"OBJECT_NAME": "STARLINK-35917", "OBJECT_ID": "2025-263U", "EPOCH": "2025-12-10T06:00:02.000160", "MEAN_MOTION": 15.50592096, "ECCENTRICITY": 0.00017754, "INCLINATION": 43.0008, "RA_OF_ASC_NODE": 139.6302, "ARG_OF_PERICENTER": 264.5583, "MEAN_ANOMALY": 183.232, "EPHEMERIS_TYPE": 0, "CLASSIFICATION_TYPE": "U", "NORAD_CAT_ID": 66503, "ELEMENT_SET_NO": 999, "REV_AT_EPOCH": 523, "BSTAR": -0.0012876374, "MEAN_MOTION_DOT": -0.00075197, "MEAN_MOTION_DDOT": 0}, "tle": {"line1": "1 66503U 25263U   25344.25002315 -.00075197  00000+0 -12876-2 0  9990", "line2": "2 66503  43.0008 139.6302 0001775 264.5583 183.2320 15.50592096  5235"}}, "geometry": {"type": "Point", "coordinates": [136.3819894262149, -1.0066745282932275]}}, {"type": "Feature", "properties": {"norad_id": 66504, "name": "STARLINK-35916", "group": "last-30-days", "lat": 15.912403701337164, "lon": -58.97272782591368, "alt_km": 441.7507097818734, "timestamp": "2025-12-10T14:53:35.946187+00:00", "meta": {"OBJECT_NAME": "STARLINK-35916", "OBJECT_ID": "2025-263V", "EPOCH": "2025-12-09T22:39:36.400320", "MEAN_MOTION": 15.40719058, "ECCENTRICITY": 0.00015372, "INCLINATION": 43.0001, "RA_OF_ASC_NODE": 142.7409, "ARG_OF_PERICENTER": 268.6806, "MEAN_ANOMALY": 91.3875, "EPHEMERIS_TYPE": 0, "CLASSIFICATION_TYPE": "U", "NORAD_CAT_ID": 66504, "ELEMENT_SET_NO": 999, "REV_AT_EPOCH": 511, "BSTAR": 0.0011340685, "MEAN_MOTION_DOT": 0.00047394, "MEAN_MOTION_DDOT": 0}, "tle": {"line1": "1 66504U 25263V   25343.94417130  .00047394  00000+0  11341-2 0  9993", "line2": "2 66504  43.0001 142.7409 0001537 268.6806  91.3875 15.40719058  5110"}}, "geometry": {"type": "Point", "coordinates": [-58.97272782591368, 15.912403701337164]}}]}